satname,norad_id,inclination_deg,eccentricity,mean_motion_rev_per_day,perigee_km,apogee_km,l1,l2
STARLINK-1465,45731,53.0521,0.0001688,15.06390697,546.071066790646,548.4090740896263,1 45731U 20038B   25293.59041640 -.00003175  00000+0 -19442-3 0  9993,2 45731  53.0521 145.5480 0001688  88.5412 271.5770 15.06390697295074
STARLINK-1471,45735,53.0497,0.0002578,15.40307963,443.44062316739473,446.9587355592739,1 45735U 20038F   25293.65517310  .00029870  00000+0  73690-3 0  9999,2 45735  53.0497  88.1596 0002578 136.8804 223.2402 15.40307963295899
STARLINK-1474,45738,53.0387,0.0003141,15.6499428,371.134597824931,375.37582241132714,1 45738U 20038J   25293.61271652  .00095544  00000+0  94940-3 0  9996,2 45738  53.0387  47.6959 0003141 261.5983  98.4675 15.64994280296451
STARLINK-1475,45739,53.052,0.0004978,15.71994412,349.8466970472755,356.54841373062027,1 45739U 20038K   25293.66671296  .00217331  00000+0  15917-2 0  9996,2 45739  53.0520  14.5969 0004978 312.2201  25.7356 15.71994412  5969
STARLINK-1480,45741,53.0517,0.0001392,15.06389141,546.2808262571762,548.2088525612671,1 45741U 20038M   25293.63832798 -.00006676  00000+0 -42983-3 0  9996,2 45741  53.0517 145.3348 0001392  91.8541 268.2608 15.06389141295090
STARLINK-1500,45744,53.0361,0.0004521,15.26927798,481.89989309026805,488.105544023786,1 45744U 20038Q   25293.56988767  .00023811  00000+0  89854-3 0  9995,2 45744  53.0361 126.0495 0004521 150.9111 209.2139 15.26927798295357
STARLINK-1504,45746,53.0274,0.0004783,15.39008463,445.7746693572253,452.30554697889875,1 45746U 20038S   25293.60086190  .00097181  00000+0  24565-2 0  9999,2 45746  53.0274  91.4859 0004783 158.1266 201.9942 15.39008463295839
STARLINK-1506,45747,53.0513,0.0003615,15.20999937,500.33570256458734,505.31063676725535,1 45747U 20038T   25293.61395134  .00029575  00000+0  13260-2 0  9994,2 45747  53.0513 127.8627 0003615 171.3895 188.7163 15.20999937295338
STARLINK-1464,45751,53.0538,0.0001465,15.06387046,546.2366909869261,548.2658297472144,1 45751U 20038X   25293.57383601 -.00001032  00000+0 -50425-4 0  9996,2 45751  53.0538 125.6227 0001465  90.8106 269.3051 15.06387046295364
STARLINK-1477,45754,53.0515,0.0001238,15.06422898,546.284030291732,547.9987292185588,1 45754U 20038AA  25293.58857051  .00010647  00000+0  73211-3 0  9992,2 45754  53.0515 125.5552 0001238  94.5527 265.5603 15.06422898295364
STARLINK-1478,45755,53.0515,0.0001396,15.0639646,546.2556273763767,548.1891877229646,1 45755U 20038AB  25293.60700241 -.00001196  00000+0 -61434-4 0  9990,2 45755  53.0515 125.4740 0001396  97.5899 262.5249 15.06396460295350
STARLINK-1484,45756,53.0204,0.0001128,15.58073897,392.46807345283105,393.9956942730296,1 45756U 20038AC  25293.55984498  .00091973  00000+0  11947-2 0  9995,2 45756  53.0204  35.5063 0001128 222.3955 137.6969 15.58073897296613
STARLINK-1493,45759,53.0513,0.0001368,15.06395578,546.2777212277924,548.1725003012971,1 45759U 20038AF  25293.59594880 -.00001788  00000+0 -10118-3 0  9991,2 45759  53.0513 125.5229 0001368  86.8485 273.2661 15.06395578295352
STARLINK-1494,45760,53.0534,5.96e-05,15.50402686,415.1445616386691,415.95436906533905,1 45760U 20038AG  25293.64540653  .00046676  00000+0  81040-3 0  9993,2 45760  53.0534 113.8245 0000596  36.5132 323.5917 15.50402686295539
STARLINK-1502,45764,53.0522,0.0001241,15.06351036,546.5021752311804,548.2210839910504,1 45764U 20038AL  25293.56278980 -.00018188  00000+0 -12068-2 0  9991,2 45764  53.0522 125.6713 0001241 100.3030 259.8099 15.06351036295362
STARLINK-1470,45772,53.0495,0.0004456,15.16967702,511.9396564938779,518.0828302083528,1 45772U 20038AU  25293.56364911  .00059981  00000+0  29920-2 0  9999,2 45772  53.0495  98.9764 0004456 173.1161 186.9894 15.16967702295730
STARLINK-1482,45773,53.0519,0.000146,15.06395606,546.2139220925174,548.2361278038015,1 45773U 20038AV  25293.59409825 -.00003840  00000+0 -23905-3 0  9990,2 45773  53.0519 105.5314 0001460  86.3853 273.7303 15.06395606295646
STARLINK-1485,45774,53.0421,0.0006145,15.98964348,273.20121212703634,281.3807331053813,1 45774U 20038AW  25293.66671296  .00649908  19762-3  13178-2 0  9990,2 45774  53.0421  40.3112 0006145 336.2353 256.7511 15.98964348  6006
STARLINK-1496,45780,53.0517,0.0001378,15.06390159,546.2874021625848,548.1960365376381,1 45780U 20038BC  25293.56093768  .00001708  00000+0  13359-3 0  9991,2 45780  53.0517 105.6795 0001378  96.9288 263.1858 15.06390159295627
STARLINK-1497,45781,53.0409,0.000657,15.50761352,410.0391480597018,418.9646755898393,1 45781U 20038BD  25293.66671296  .00182416  00000+0  30493-2 0  9994,2 45781  53.0409  54.1247 0006570 206.7182  61.8766 15.50761352  5908
STARLINK-1510,45784,53.0348,0.0002243,15.65694963,369.72690987874194,372.75468075772187,1 45784U 20038BG  25293.66671296  .00247045  00000+0  23352-2 0  9993,2 45784  53.0348  31.5328 0002243 121.0256 150.3078 15.65694963  5893
STARLINK-1513,45786,53.0539,0.0001579,15.06385225,546.1633218678298,548.3503612429931,1 45786U 20038BJ  25293.59041791 -.00001005  00000+0 -48614-4 0  9994,2 45786  53.0539 105.5492 0001579  95.9210 264.1959 15.06385225295640
STARLINK-1522,46027,53.0555,0.0001352,15.06385939,546.3183402618251,548.1909661648533,1 46027U 20055A   25293.57107396 -.00001584  00000+0 -87493-4 0  9994,2 46027  53.0555  35.6318 0001352  97.1119 263.0024 15.06385939287765
STARLINK-1523,46028,53.0569,0.0001389,15.06385452,546.2942087138645,548.2180829297749,1 46028U 20055B   25293.58583190 -.00001786  00000+0 -10110-3 0  9991,2 46028  53.0569  35.5702 0001389  87.4472 272.6676 15.06385452287782
STARLINK-1526,46029,53.0556,0.0001453,15.06384574,546.2525767948964,548.2650968250737,1 46029U 20055C   25293.57845367 -.00001376  00000+0 -73506-4 0  9992,2 46029  53.0556  35.5974 0001453  91.2606 268.8549 15.06384574287773
STARLINK-1555,46032,53.0579,0.0001289,15.06383421,546.3696866726123,548.1550546303652,1 46032U 20055F   25293.56371016  .00000427  00000+0  47555-4 0  9999,2 46032  53.0579  35.6665 0001289 100.5633 259.5501 15.06383421287776
STARLINK-1556,46033,53.0551,0.0001456,15.06391396,546.2295934950589,548.2462626741171,1 46033U 20055G   25293.61162011 -.00004292  00000+0 -26948-3 0  9997,2 46033  53.0551  35.4530 0001456  96.2047 263.9108 15.06391396287752
STARLINK-1557,46034,53.0552,0.0001129,15.06391456,546.4558693828658,548.0196190001043,1 46034U 20055H   25293.54895079  .00001316  00000+0  10725-3 0  9995,2 46034  53.0552  35.7303 0001129  98.6126 261.4991 15.06391456287745
